NORAD_CAT_ID,OBJECT_NAME,OBJECT_TYPE,EPOCH,MEAN_MOTION,ECCENTRICITY,INCLINATION,RA_OF_ASC_NODE,ARG_OF_PERICENTER,MEAN_ANOMALY,BSTAR,MEAN_MOTION_DOT,MEAN_MOTION_DDOT,TLE_LINE0,TLE_LINE1,TLE_LINE2,SEMIMAJOR_AXIS,PERIOD,APOGEE,PERIGEE,DECAYED
49171.0,STARLINK-3107,PAYLOAD,2024-02-02 12:32:06,14.98336304,0.0002856,69.9996,66.2459,271.2504,88.8327,5.8815e-05,6.09e-06,0.0,0 STARLINK-3107,1 49171U 21082AT  24033.52229606  .00000609  00000-0  58815-4 0  9995,2 49171  69.9996  66.2459 0002856 271.2504  88.8327 14.98336304132379,6950.173,96.107,574.023,570.053,0.0
49171.0,STARLINK-3107,PAYLOAD,2024-02-03 02:57:19,14.98327473,0.0002674,70.0,64.7312,259.0488,101.037,3.6513e-05,3.43e-06,0.0,0 STARLINK-3107,1 49171U 21082AT  24034.12314076  .00000343  00000-0  36513-4 0  9994,2 49171  70.0000  64.7312 0002674 259.0488 101.0370 14.98327473132465,6950.201,96.107,573.924,570.207,0.0
49171.0,STARLINK-3107,PAYLOAD,2024-02-03 10:57:59,14.98325592,0.0002738,69.9998,63.8896,259.7578,100.3273,7.4569e-06,-4e-08,0.0,0 STARLINK-3107,1 49171U 21082AT  24034.45694366 -.00000004  00000-0  74569-5 0  9992,2 49171  69.9998  63.8896 0002738 259.7578 100.3273 14.98325592132513,6950.207,96.107,573.974,570.169,0.0
49171.0,STARLINK-3107,PAYLOAD,2024-02-04 02:59:20,14.98333579,0.000277,69.9997,62.2061,260.2759,99.8087,1.7616e-05,1.17e-06,0.0,0 STARLINK-3107,1 49171U 21082AT  24035.12453786  .00000117  00000-0  17616-4 0  9999,2 49171  69.9997  62.2061 0002770 260.2759  99.8087 14.98333579132613,6950.182,96.107,573.972,570.122,0.0
49171.0,STARLINK-3107,PAYLOAD,2024-02-04 12:36:08,14.98334238,0.0002762,69.9998,61.1962,261.419,98.6656,2.7474e-05,2.35e-06,0.0,0 STARLINK-3107,1 49171U 21082AT  24035.52509686  .00000235  00000-0  27474-4 0  9998,2 49171  69.9998  61.1962 0002762 261.4190  98.6656 14.98334238132673,6950.18,96.107,573.964,570.125,0.0
49171.0,STARLINK-3107,PAYLOAD,2024-02-05 04:37:29,14.98327263,0.0002806,69.9996,59.5128,259.0897,100.9947,6.1157e-05,6.37e-06,0.0,0 STARLINK-3107,1 49171U 21082AT  24036.19269971  .00000637  00000-0  61157-4 0  9994,2 49171  69.9996  59.5128 0002806 259.0897 100.9947 14.98327263132773,6950.201,96.107,574.017,570.116,0.0
49171.0,STARLINK-3107,PAYLOAD,2024-02-05 11:02:01,14.98328421,0.0002886,69.9995,58.8386,266.5016,93.5813,5.9763e-05,6.2e-06,0.0,0 STARLINK-3107,1 49171U 21082AT  24036.45974006  .00000620  00000-0  59763-4 0  9997,2 49171  69.9995  58.8386 0002886 266.5016  93.5813 14.98328421132815,6950.198,96.107,574.069,570.057,0.0
49171.0,STARLINK-3107,PAYLOAD,2024-02-05 19:02:41,14.98329695,0.000292,69.9994,57.9957,266.5725,93.51,3.4214e-05,3.15e-06,0.0,0 STARLINK-3107,1 49171U 21082AT  24036.79354000  .00000315  00000-0  34214-4 0  9995,2 49171  69.9994  57.9957 0002920 266.5725  93.5100 14.98329695132862,6950.194,96.107,574.088,570.029,0.0
49171.0,STARLINK-3107,PAYLOAD,2024-02-06 04:39:30,14.98333519,0.0002995,69.9991,56.9858,267.1434,92.9382,1.8625e-05,1.29e-06,0.0,0 STARLINK-3107,1 49171U 21082AT  24037.19409749  .00000129  00000-0  18625-4 0  9992,2 49171  69.9991  56.9858 0002995 267.1434  92.9382 14.98333519132926,6950.182,96.107,574.129,569.965,0.0
49171.0,STARLINK-3107,PAYLOAD,2024-02-06 11:04:02,14.98335701,0.0002985,69.9993,56.3125,267.4245,92.6572,4.3022e-05,4.2e-06,0.0,0 STARLINK-3107,1 49171U 21082AT  24037.46113500  .00000420  00000-0  43022-4 0  9992,2 49171  69.9993  56.3125 0002985 267.4245  92.6572 14.98335701132968,6950.175,96.107,574.115,569.966,0.0
49171.0,STARLINK-3107,PAYLOAD,2024-02-07 11:06:02,14.98334314,0.000302,69.9994,53.7879,268.317,91.7643,6.7876e-05,7.17e-06,0.0,0 STARLINK-3107,1 49171U 21082AT  24038.46253405  .00000717  00000-0  67876-4 0  9994,2 49171  69.9994  53.7879 0003020 268.3170  91.7643 14.98334314133110,6950.18,96.107,574.144,569.946,0.0
49171.0,STARLINK-3107,PAYLOAD,2024-02-08 11:08:03,14.98334086,0.0002824,69.9999,51.2635,272.744,87.3396,4.9867e-05,5.02e-06,0.0,0 STARLINK-3107,1 49171U 21082AT  24039.46393463  .00000502  00000-0  49867-4 0  9996,2 49171  69.9999  51.2635 0002824 272.7440  87.3396 14.98334086133266,6950.18,96.107,574.008,570.083,0.0
49171.0,STARLINK-3107,PAYLOAD,2024-02-09 09:33:56,14.98341874,0.0002819,69.9998,48.9066,268.1199,91.9637,-0.0001732,-2.16e-05,0.0,0 STARLINK-3107,1 49171U 21082AT  24040.39857358 -.00002160  00000-0 -17320-3 0  9990,2 49171  69.9998  48.9066 0002819 268.1199  91.9637 14.98341874133408,6950.156,96.106,573.98,570.062,0.0
49171.0,STARLINK-3107,PAYLOAD,2024-02-10 03:11:25,14.98328578,0.0002724,69.9994,47.0545,262.8274,97.2575,4.304e-06,-4.2e-07,0.0,0 STARLINK-3107,1 49171U 21082AT  24041.13293832 -.00000042  00000-0  43040-5 0  9990,2 49171  69.9994  47.0545 0002724 262.8274  97.2575 14.98328578133514,6950.197,96.107,573.956,570.169,0.0
49171.0,STARLINK-3107,PAYLOAD,2024-02-10 09:35:58,14.98329298,0.0002775,69.9997,46.3816,266.7076,93.3765,1.649e-05,1.04e-06,0.0,0 STARLINK-3107,1 49171U 21082AT  24041.39997820  .00000104  00000-0  16490-4 0  9992,2 49171  69.9997  46.3816 0002775 266.7076  93.3765 14.98329298133551,6950.195,96.107,573.989,570.131,0.0
49171.0,STARLINK-3107,PAYLOAD,2024-02-11 03:13:26,14.98331213,0.0002759,70.0,44.5307,259.7347,100.3501,7.2149e-05,7.68e-06,0.0,0 STARLINK-3107,1 49171U 21082AT  24042.13433531  .00000768  00000-0  72149-4 0  9998,2 49171  70.0000  44.5307 0002759 259.7347 100.3501 14.98331213133668,6950.189,96.107,573.972,570.137,0.0
49171.0,STARLINK-3107,PAYLOAD,2024-02-11 09:37:58,14.98332657,0.0002692,70.0005,43.8579,257.8069,102.2789,8.9602e-05,9.76e-06,0.0,0 STARLINK-3107,1 49171U 21082AT  24042.40137366  .00000976  00000-0  89602-4 0  9998,2 49171  70.0005  43.8579 0002692 257.8069 102.2789 14.98332657133709,6950.185,96.107,573.921,570.179,0.0
49171.0,STARLINK-3107,PAYLOAD,2024-02-11 22:27:03,14.9833335,0.0002701,70.0006,42.5115,258.9593,101.1262,0.00010661,1.179e-05,0.0,0 STARLINK-3107,1 49171U 21082AT  24042.93545164  .00001179  00000-0  10661-3 0  9999,2 49171  70.0006  42.5115 0002701 258.9593 101.1262 14.98333350133780,6950.183,96.107,573.925,570.17,0.0
49171.0,STARLINK-3107,PAYLOAD,2024-02-12 03:15:27,14.98330662,0.0002739,70.0003,42.0052,261.2564,98.8285,6.7026e-05,7.07e-06,0.0,0 STARLINK-3107,1 49171U 21082AT  24043.13573448  .00000707  00000-0  67026-4 0  9992,2 49171  70.0003  42.0052 0002739 261.2564  98.8285 14.98330662133812,6950.191,96.107,573.96,570.152,0.0
49171.0,STARLINK-3107,PAYLOAD,2024-02-12 09:39:59,14.98333898,0.00027,70.0005,41.332,260.1432,99.9423,0.00010278,1.134e-05,0.0,0 STARLINK-3107,1 49171U 21082AT  24043.40277183  .00001134  00000-0  10278-3 0  9990,2 49171  70.0005  41.3320 0002700 260.1432  99.9423 14.98333898133858,6950.181,96.107,573.922,570.169,0.0
49171.0,STARLINK-3107,PAYLOAD,2024-02-13 03:17:28,14.98328624,0.0002537,70.0011,39.4805,256.1135,103.9742,-1.6433e-05,-2.89e-06,0.0,0 STARLINK-3107,1 49171U 21082AT  24044.13713738 -.00000289  00000-0 -16433-4 0  9994,2 49171  70.0011  39.4805 0002537 256.1135 103.9742 14.98328624133967,6950.197,96.107,573.825,570.299,0.0
49171.0,STARLINK-3107,PAYLOAD,2024-02-13 09:42:01,14.98327594,0.0002605,70.0013,38.8072,261.3956,98.6908,-6.6484e-06,-1.72e-06,0.0,0 STARLINK-3107,1 49171U 21082AT  24044.40417869 -.00000172  00000-0 -66484-5 0  9993,2 49171  70.0013  38.8072 0002605 261.3956  98.6908 14.98327594134008,6950.2,96.107,573.876,570.255,0.0
49171.0,STARLINK-3107,PAYLOAD,2024-02-13 22:31:05,14.98333584,0.0002554,70.0009,37.4602,265.5577,94.5291,6.0141e-05,6.25e-06,0.0,0 STARLINK-3107,1 49171U 21082AT  24044.93825304  .00000625  00000-0  60141-4 0  9992,2 49171  70.0009  37.4602 0002554 265.5577  94.5291 14.98333584134089,6950.182,96.107,573.822,570.272,0.0
49171.0,STARLINK-3107,PAYLOAD,2024-02-14 03:19:29,14.9833202,0.0002614,70.0007,36.9552,264.2004,95.8857,3.6328e-05,3.41e-06,0.0,0 STARLINK-3107,1 49171U 21082AT  24045.13853420  .00000341  00000-0  36328-4 0  9990,2 49171  70.0007  36.9552 0002614 264.2004  95.8857 14.98332020134113,6950.187,96.107,573.868,570.235,0.0
49171.0,STARLINK-3107,PAYLOAD,2024-02-14 09:44:01,14.98334363,0.0002588,70.0009,36.2821,264.4655,95.6209,6.1402e-05,6.4e-06,0.0,0 STARLINK-3107,1 49171U 21082AT  24045.40557155  .00000640  00000-0  61402-4 0  9999,2 49171  70.0009  36.2821 0002588 264.4655  95.6209 14.98334363134156,6950.179,96.107,573.843,570.246,0.0
49171.0,STARLINK-3107,PAYLOAD,2024-02-14 16:08:33,14.98331375,0.0002656,70.0009,35.6086,265.974,94.1116,-8.2642e-06,-1.92e-06,0.0,0 STARLINK-3107,1 49171U 21082AT  24045.67261488 -.00000192  00000-0 -82642-5 0  9993,2 49171  70.0009  35.6086 0002656 265.9740  94.1116 14.98331375134194,6950.189,96.107,573.9,570.208,0.0
49171.0,STARLINK-3107,PAYLOAD,2024-02-15 03:21:30,14.98326659,0.0002319,70.0013,34.4304,261.2328,98.8568,7.771e-05,8.34e-06,0.0,0 STARLINK-3107,1 49171U 21082AT  24046.13993663  .00000834  00000-0  77710-4 0  9992,2 49171  70.0013  34.4304 0002319 261.2328  98.8568 14.98326659134265,6950.203,96.107,573.68,570.456,0.0
49171.0,STARLINK-3107,PAYLOAD,2024-02-15 08:09:54,14.9832575,0.0002495,70.0014,33.9255,268.8827,91.2046,4.327e-05,4.23e-06,0.0,0 STARLINK-3107,1 49171U 21082AT  24046.34021883  .00000423  00000-0  43270-4 0  9999,2 49171  70.0014  33.9255 0002495 268.8827  91.2046 14.98325750134299,6950.206,96.107,573.805,570.337,0.0
49171.0,STARLINK-3107,PAYLOAD,2024-02-15 22:35:07,14.9833236,0.0002988,70.0011,32.4111,273.2104,86.8713,5.5957e-05,5.75e-06,0.0,0 STARLINK-3107,1 49171U 21082AT  24046.94105383  .00000575  00000-0  55957-4 0  9996,2 49171  70.0011  32.4111 0002988 273.2104  86.8713 14.98332360134382,6950.186,96.107,574.127,569.974,0.0
49171.0,STARLINK-3107,PAYLOAD,2024-02-16 04:59:38,14.98382734,0.0002917,70.001,31.7378,265.7438,94.3387,-0.00080475,-9.695e-05,0.0,0 STARLINK-3107,1 49171U 21082AT  24047.20808175 -.00009695  00000-0 -80475-3 0  9991,2 49171  70.0010  31.7378 0002917 265.7438  94.3387 14.98382734134422,6950.03,96.104,573.922,569.867,0.0
